ONEWEB-0184             
1 48211U 21031B   25114.19973964 -.00000179  00000+0 -51810-3 0  9990
2 48211  87.9107  13.0060 0001150  60.3233 299.8011 13.14501477193246
ONEWEB-0179             
1 48212U 21031C   25114.70324805  .00000233  00000+0  59415-3 0  9990
2 48212  87.9087  12.9244 0001683  83.2630 276.8691 13.14496573193353
ONEWEB-0218             
1 48214U 21031E   25114.14899270  .00000024  00000+0  29601-4 0  9996
2 48214  87.9087  13.0236 0000826  82.8654 277.2569 13.14502222193322
ONEWEB-0209             
1 48215U 21031F   25113.68117577 -.00000105  00000+0 -31681-3 0  9990
2 48215  87.9091  13.1575 0001807  87.2792 272.8544 13.14500626193260
ONEWEB-0198             
1 48216U 21031G   25113.81756531 -.00000043  00000+0 -15147-3 0  9995
2 48216  87.9086  13.1335 0001467  86.5266 273.6032 13.14502610193399
ONEWEB-0189             
1 48217U 21031H   25114.21082841 -.00000176  00000+0 -50824-3 0  9995
2 48217  87.9090  13.0286 0001496  89.8375 270.2926 13.14501053193180
